[{"OBJECT_NAME":"ONEWEB-0504","OBJECT_ID":"2022-138K","EPOCH":"2026-03-24T05:07:22.906848","MEAN_MOTION":13.19726369,"ECCENTRICITY":0.00017505,"INCLINATION":87.9204,"RA_OF_ASC_NODE":321.9007,"ARG_OF_PERICENTER":90.8368,"MEAN_ANOMALY":269.2965,"EPHEMERIS_TYPE":0,"CLASSIFICATION_TYPE":"U","NORAD_CAT_ID":54122,"ELEMENT_SET_NO":999,"REV_AT_EPOCH":16562,"BSTAR":0.0002321095,"MEAN_MOTION_DOT":1.06e-6,"MEAN_MOTION_DDOT":0},{"OBJECT_NAME":"ONEWEB-0505","OBJECT_ID":"2022-138L","EPOCH":"2026-03-24T05:02:49.912224","MEAN_MOTION":13.19726133,"ECCENTRICITY":0.00019497,"INCLINATION":87.9216,"RA_OF_ASC_NODE":321.8986,"ARG_OF_PERICENTER":96.3463,"MEAN_ANOMALY":263.7892,"EPHEMERIS_TYPE":0,"CLASSIFICATION_TYPE":"U","NORAD_CAT_ID":54123,"ELEMENT_SET_NO":999,"REV_AT_EPOCH":16560,"BSTAR":0.00015367047,"MEAN_MOTION_DOT":7.4e-7,"MEAN_MOTION_DDOT":0},{"OBJECT_NAME":"ONEWEB-0506","OBJECT_ID":"2022-138M","EPOCH":"2026-03-24T04:26:26.301696","MEAN_MOTION":13.19726042,"ECCENTRICITY":0.00018863,"INCLINATION":87.9213,"RA_OF_ASC_NODE":321.9013,"ARG_OF_PERICENTER":91.387,"MEAN_ANOMALY":268.7478,"EPHEMERIS_TYPE":0,"CLASSIFICATION_TYPE":"U","NORAD_CAT_ID":54124,"ELEMENT_SET_NO":999,"REV_AT_EPOCH":16559,"BSTAR":0.00013386619,"MEAN_MOTION_DOT":6.7e-7,"MEAN_MOTION_DDOT":0},{"OBJECT_NAME":"ONEWEB-0507","OBJECT_ID":"2022-138N","EPOCH":"2026-03-24T04:56:00.418560","MEAN_MOTION":13.19725373,"ECCENTRICITY":0.00018891,"INCLINATION":87.9204,"RA_OF_ASC_NODE":321.9175,"ARG_OF_PERICENTER":86.839,"MEAN_ANOMALY":273.2959,"EPHEMERIS_TYPE":0,"CLASSIFICATION_TYPE":"U","NORAD_CAT_ID":54125,"ELEMENT_SET_NO":999,"REV_AT_EPOCH":16564,"BSTAR":0.00014895213,"MEAN_MOTION_DOT":7.3e-7,"MEAN_MOTION_DDOT":0},{"OBJECT_NAME":"ONEWEB-0508","OBJECT_ID":"2022-138P","EPOCH":"2026-03-24T04:51:27.330624","MEAN_MOTION":13.19730074,"ECCENTRICITY":0.0002197,"INCLINATION":87.9203,"RA_OF_ASC_NODE":321.9171,"ARG_OF_PERICENTER":89.5454,"MEAN_ANOMALY":270.5931,"EPHEMERIS_TYPE":0,"CLASSIFICATION_TYPE":"U","NORAD_CAT_ID":54126,"ELEMENT_SET_NO":999,"REV_AT_EPOCH":16562,"BSTAR":0.00012608115,"MEAN_MOTION_DOT":6.3e-7,"MEAN_MOTION_DDOT":0},{"OBJECT_NAME":"ONEWEB-0509","OBJECT_ID":"2022-138Q","EPOCH":"2026-03-24T04:15:03.644928","MEAN_MOTION":13.19726201,"ECCENTRICITY":0.00017804,"INCLINATION":87.9213,"RA_OF_ASC_NODE":321.9029,"ARG_OF_PERICENTER":85.1365,"MEAN_ANOMALY":274.9971,"EPHEMERIS_TYPE":0,"CLASSIFICATION_TYPE":"U","NORAD_CAT_ID":54127,"ELEMENT_SET_NO":999,"REV_AT_EPOCH":16559,"BSTAR":3.922745e-6,"MEAN_MOTION_DOT":1.5e-7,"MEAN_MOTION_DDOT":0},{"OBJECT_NAME":"ONEWEB-0510","OBJECT_ID":"2022-138R","EPOCH":"2026-03-24T06:48:47.401344","MEAN_MOTION":13.20771587,"ECCENTRICITY":0.00013916,"INCLINATION":87.9149,"RA_OF_ASC_NODE":291.3888,"ARG_OF_PERICENTER":74.9723,"MEAN_ANOMALY":285.1564,"EPHEMERIS_TYPE":0,"CLASSIFICATION_TYPE":"U","NORAD_CAT_ID":54128,"ELEMENT_SET_NO":999,"REV_AT_EPOCH":16807,"BSTAR":0.00014245898,"MEAN_MOTION_DOT":7.1e-7,"MEAN_MOTION_DDOT":0},{"OBJECT_NAME":"ONEWEB-0511","OBJECT_ID":"2022-138S","EPOCH":"2026-03-24T04:10:30.065376","MEAN_MOTION":13.19728591,"ECCENTRICITY":0.00015861,"INCLINATION":87.9213,"RA_OF_ASC_NODE":321.9079,"ARG_OF_PERICENTER":92.3334,"MEAN_ANOMALY":267.7981,"EPHEMERIS_TYPE":0,"CLASSIFICATION_TYPE":"U","NORAD_CAT_ID":54129,"ELEMENT_SET_NO":999,"REV_AT_EPOCH":16562,"BSTAR":0.00015468615,"MEAN_MOTION_DOT":7.5e-7,"MEAN_MOTION_DDOT":0},{"OBJECT_NAME":"ONEWEB-0512","OBJECT_ID":"2022-138T","EPOCH":"2026-03-24T03:59:08.081664","MEAN_MOTION":13.19725663,"ECCENTRICITY":0.00018516,"INCLINATION":87.9204,"RA_OF_ASC_NODE":321.9218,"ARG_OF_PERICENTER":94.2977,"MEAN_ANOMALY":265.8367,"EPHEMERIS_TYPE":0,"CLASSIFICATION_TYPE":"U","NORAD_CAT_ID":54130,"ELEMENT_SET_NO":999,"REV_AT_EPOCH":16559,"BSTAR":0.0001694989,"MEAN_MOTION_DOT":8.1e-7,"MEAN_MOTION_DDOT":0},{"OBJECT_NAME":"ONEWEB-0513","OBJECT_ID":"2022-138U","EPOCH":"2026-03-24T04:57:20.155392","MEAN_MOTION":13.20263441,"ECCENTRICITY":0.00018946,"INCLINATION":87.9214,"RA_OF_ASC_NODE":321.8679,"ARG_OF_PERICENTER":112.8883,"MEAN_ANOMALY":247.245,"EPHEMERIS_TYPE":0,"CLASSIFICATION_TYPE":"U","NORAD_CAT_ID":54131,"ELEMENT_SET_NO":999,"REV_AT_EPOCH":16550,"BSTAR":0.00015063878,"MEAN_MOTION_DOT":7.4e-7,"MEAN_MOTION_DDOT":0},{"OBJECT_NAME":"ONEWEB-0514","OBJECT_ID":"2022-138V","EPOCH":"2026-03-24T04:21:52.893216","MEAN_MOTION":13.19725548,"ECCENTRICITY":0.00016166,"INCLINATION":87.9205,"RA_OF_ASC_NODE":321.9081,"ARG_OF_PERICENTER":79.2952,"MEAN_ANOMALY":280.8363,"EPHEMERIS_TYPE":0,"CLASSIFICATION_TYPE":"U","NORAD_CAT_ID":54132,"ELEMENT_SET_NO":999,"REV_AT_EPOCH":16561,"BSTAR":0.00011623836,"MEAN_MOTION_DOT":5.9e-7,"MEAN_MOTION_DDOT":0},{"OBJECT_NAME":"ONEWEB-0515","OBJECT_ID":"2022-138W","EPOCH":"2026-03-24T06:30:36.782784","MEAN_MOTION":13.20770719,"ECCENTRICITY":0.00020002,"INCLINATION":87.9156,"RA_OF_ASC_NODE":291.3809,"ARG_OF_PERICENTER":62.5233,"MEAN_ANOMALY":297.6104,"EPHEMERIS_TYPE":0,"CLASSIFICATION_TYPE":"U","NORAD_CAT_ID":54133,"ELEMENT_SET_NO":999,"REV_AT_EPOCH":16809,"BSTAR":-3.8663685e-5,"MEAN_MOTION_DOT":-3.0e-8,"MEAN_MOTION_DDOT":0},{"OBJECT_NAME":"ONEWEB-0516","OBJECT_ID":"2022-138X","EPOCH":"2026-03-24T03:45:29.909952","MEAN_MOTION":13.1972598,"ECCENTRICITY":0.00018703,"INCLINATION":87.9204,"RA_OF_ASC_NODE":321.9246,"ARG_OF_PERICENTER":82.3841,"MEAN_ANOMALY":277.7504,"EPHEMERIS_TYPE":0,"CLASSIFICATION_TYPE":"U","NORAD_CAT_ID":54134,"ELEMENT_SET_NO":999,"REV_AT_EPOCH":16561,"BSTAR":0.00020583732,"MEAN_MOTION_DOT":9.5e-7,"MEAN_MOTION_DDOT":0},{"OBJECT_NAME":"ONEWEB-0517","OBJECT_ID":"2022-138Y","EPOCH":"2026-03-24T05:05:06.086400","MEAN_MOTION":13.19725512,"ECCENTRICITY":0.00014206,"INCLINATION":87.9203,"RA_OF_ASC_NODE":321.9031,"ARG_OF_PERICENTER":85.9833,"MEAN_ANOMALY":274.1463,"EPHEMERIS_TYPE":0,"CLASSIFICATION_TYPE":"U","NORAD_CAT_ID":54135,"ELEMENT_SET_NO":999,"REV_AT_EPOCH":16562,"BSTAR":0.00024129786,"MEAN_MOTION_DOT":1.1e-6,"MEAN_MOTION_DDOT":0},{"OBJECT_NAME":"ONEWEB-0518","OBJECT_ID":"2022-138Z","EPOCH":"2026-03-24T03:43:13.143072","MEAN_MOTION":13.19725523,"ECCENTRICITY":0.00018302,"INCLINATION":87.9205,"RA_OF_ASC_NODE":321.9267,"ARG_OF_PERICENTER":86.4998,"MEAN_ANOMALY":273.6344,"EPHEMERIS_TYPE":0,"CLASSIFICATION_TYPE":"U","NORAD_CAT_ID":54136,"ELEMENT_SET_NO":999,"REV_AT_EPOCH":16561,"BSTAR":0.0003161246,"MEAN_MOTION_DOT":1.4e-6,"MEAN_MOTION_DDOT":0},{"OBJECT_NAME":"ONEWEB-0519","OBJECT_ID":"2022-138AA","EPOCH":"2026-03-24T04:19:36.590304","MEAN_MOTION":13.19726067,"ECCENTRICITY":0.00015203,"INCLINATION":87.9214,"RA_OF_ASC_NODE":321.903,"ARG_OF_PERICENTER":86.0466,"MEAN_ANOMALY":274.0841,"EPHEMERIS_TYPE":0,"CLASSIFICATION_TYPE":"U","NORAD_CAT_ID":54137,"ELEMENT_SET_NO":999,"REV_AT_EPOCH":16562,"BSTAR":6.3477096e-5,"MEAN_MOTION_DOT":3.8e-7,"MEAN_MOTION_DDOT":0},{"OBJECT_NAME":"ONEWEB-0520","OBJECT_ID":"2022-138AB","EPOCH":"2026-03-24T05:09:39.262464","MEAN_MOTION":13.19725942,"ECCENTRICITY":0.00019216,"INCLINATION":87.9208,"RA_OF_ASC_NODE":321.901,"ARG_OF_PERICENTER":88.7362,"MEAN_ANOMALY":271.399,"EPHEMERIS_TYPE":0,"CLASSIFICATION_TYPE":"U","NORAD_CAT_ID":54138,"ELEMENT_SET_NO":999,"REV_AT_EPOCH":16561,"BSTAR":7.1207242e-5,"MEAN_MOTION_DOT":4.1e-7,"MEAN_MOTION_DDOT":0}]
