ONEWEB-0504             
1 54122U 22138K   26083.21345957  .00000106  00000+0  23211-3 0  9993
2 54122  87.9204 321.9007 0001750  90.8368 269.2965 13.19726369165621
ONEWEB-0505             
1 54123U 22138L   26083.21029991  .00000074  00000+0  15367-3 0  9998
2 54123  87.9216 321.8986 0001949  96.3463 263.7892 13.19726133165602
ONEWEB-0506             
1 54124U 22138M   26083.18502664  .00000067  00000+0  13387-3 0  9990
2 54124  87.9213 321.9013 0001886  91.3870 268.7478 13.19726042165591
ONEWEB-0507             
1 54125U 22138N   26083.20556040  .00000073  00000+0  14895-3 0  9993
2 54125  87.9204 321.9175 0001889  86.8390 273.2959 13.19725373165647
ONEWEB-0508             
1 54126U 22138P   26083.20239966  .00000063  00000+0  12608-3 0  9998
2 54126  87.9203 321.9171 0002197  89.5454 270.5931 13.19730074165629
ONEWEB-0509             
1 54127U 22138Q   26083.17712552  .00000015  00000+0  39227-5 0  9997
2 54127  87.9213 321.9029 0001780  85.1365 274.9971 13.19726201165598
ONEWEB-0510             
1 54128U 22138R   26083.28388196  .00000071  00000+0  14246-3 0  9997
2 54128  87.9149 291.3888 0001391  74.9723 285.1564 13.20771587168079
ONEWEB-0511             
1 54129U 22138S   26083.17395909  .00000075  00000+0  15469-3 0  9998
2 54129  87.9213 321.9079 0001586  92.3334 267.7981 13.19728591165624
ONEWEB-0512             
1 54130U 22138T   26083.16606576  .00000081  00000+0  16950-3 0  9997
2 54130  87.9204 321.9218 0001851  94.2977 265.8367 13.19725663165590
ONEWEB-0513             
1 54131U 22138U   26083.20648328  .00000074  00000+0  15064-3 0  9991
2 54131  87.9214 321.8679 0001894 112.8883 247.2450 13.20263441165503
ONEWEB-0514             
1 54132U 22138V   26083.18186219  .00000059  00000+0  11624-3 0  9996
2 54132  87.9205 321.9081 0001616  79.2952 280.8363 13.19725548165614
ONEWEB-0515             
1 54133U 22138W   26083.27125906 -.00000003  00000+0 -38664-4 0  9998
2 54133  87.9156 291.3809 0002000  62.5233 297.6104 13.20770719168099
ONEWEB-0516             
1 54134U 22138X   26083.15659618  .00000095  00000+0  20584-3 0  9998
2 54134  87.9204 321.9246 0001870  82.3841 277.7504 13.19725980165614
ONEWEB-0517             
1 54135U 22138Y   26083.21187600  .00000110  00000+0  24130-3 0  9992
2 54135  87.9203 321.9031 0001420  85.9833 274.1463 13.19725512165624
ONEWEB-0518             
1 54136U 22138Z   26083.15501323  .00000140  00000+0  31612-3 0  9994
2 54136  87.9205 321.9267 0001830  86.4998 273.6344 13.19725523165614
ONEWEB-0519             
1 54137U 22138AA  26083.18028461  .00000038  00000+0  63477-4 0  9996
2 54137  87.9214 321.9030 0001520  86.0466 274.0841 13.19726067165627
ONEWEB-0520             
1 54138U 22138AB  26083.21503776  .00000041  00000+0  71207-4 0  9992
2 54138  87.9208 321.9010 0001921  88.7362 271.3990 13.19725942165613
